SARSAT 7 (NOAA 15)      
1 25338U 98030A   16097.49931408  .00000063  00000-0  45252-4 0  9993
2 25338  98.7836 101.5048 0011315  39.3878 320.8122 14.25715080930779
GPS BIIR-07             
1 26690U 01004A   16097.47404241  .00000022  00000-0  00000+0 0  9990
2 26690  52.9984 176.0769 0171655 251.4570 202.8754  2.00562921111252
METEOSAT-8 (MSG-1)      
1 27509U 02040B   16097.25091696  .00000003  00000-0  00000+0 0  9992
2 27509   4.0761  60.0029 0000696 268.6006 320.2078  1.00271380 49905
GPS BIIR-08             
1 27663U 03005A   16097.10481699 -.00000064  00000-0  00000+0 0  9993
2 27663  56.7731   1.8928 0086388  18.8861 261.5610  2.00556823 96612
INSAT 3A                
1 27714U 03013A   16097.50331453 -.00000277  00000-0  00000+0 0  9991
2 27714   0.0374 111.1273 0005726 307.4191  51.3574  1.00270615 47613
GPS BIIR-11             
1 28190U 04009A   16097.31518741 -.00000017  00000-0  00000+0 0  9994
2 28190  55.7491  63.2521 0106141  41.2783 179.5335  2.00571060 88280
GPS BIIR-12             
1 28361U 04023A   16097.50960487 -.00000015  00000-0  00000+0 0  9997
2 28361  54.2213 237.7732 0108240 212.2337  64.3338  2.00560060 86375
GPS BIIR-13             
1 28474U 04045A   16097.27578034  .00000059  00000-0  00000+0 0  9990
2 28474  54.0217 115.6671 0157982 237.9892 232.6687  2.00553957 83736
SARSAT 10 (NOAA 18)     
1 28654U 05018A   16097.50775621  .00000054  00000-0  54856-4 0  9996
2 28654  99.1984 102.5733 0013728 212.4157 147.6171 14.12277381560612
GPS BIIR-14M            
1 28874U 05038A   16097.20209203 -.00000021  00000-0  00000+0 0  9999
2 28874  55.9157  60.4541 0112146 249.6679 276.9466  2.00564467 77133
MSG-2                   
1 28912U 05049B   16097.19000159  .00000044  00000-0  00000+0 0  9995
2 28912   1.3639  67.0473 0002142 273.4372 292.0322  1.00272522 37731
GOES 13                 
1 29155U 06018A   16096.66729053 -.00000270  00000-0  00000+0 0  9996
2 29155   0.3463 269.2656 0006242 145.9197 304.8700  1.00270605 36176
SARSAT 11 (METOP-A)     
1 29499U 06044A   16097.89477944  .00000035  00000-0  35882-4 0  9990
2 29499  98.7034 157.8900 0001382  43.1229  63.6717 14.21483910491154
GPS BIIR-16M            
1 29601U 06052A   16097.02546113 -.00000063  00000-0  00000+0 0  9995
2 29601  56.7436   0.8207 0058992  38.7799 321.6740  2.00554355 68763
GPS BIIR-17M            
1 32260U 07047A   16097.34671664 -.00000016  00000-0  00000+0 0  9998
2 32260  53.3501 234.5129 0079985  26.1423 334.2149  2.00575279 62151
GPS BIIR-18M            
1 32384U 07062A   16097.34227110 -.00000021  00000-0  00000+0 0  9991
2 32384  55.9705  61.0028 0011738 325.4676 170.0819  2.00573443 60889
SARSAT 12 (NOAA 19)     
1 33591U 09005A   16097.52183719  .00000136  00000-0  98827-4 0  9992
2 33591  99.0327  53.7373 0015005  62.6832 297.5864 14.12058765369029
GOES 14                 
1 35491U 09033A   16096.75058557 -.00000110  00000-0  00000+0 0  9993
2 35491   0.1084 105.0912 0002848 122.9794 131.9023  1.00272006 24813
GOES 15                 
1 36411U 10008A   16096.83533789  .00000071  00000-0  00000+0 0  9999
2 36411   0.0462 124.1482 0001396 271.9387 323.9195  1.00266149 22349
ELEKTRO-L 1             
1 37344U 11001A   16096.00530281 -.00000115  00000-0  00000-0 0  9993
2 37344   1.5624  79.6498 0003812 184.0837   8.0414  1.00270705 19110
GLONASS-K 1             
1 37372U 11009A   16096.71848846  .00000039  00000-0  00000+0 0  9992
2 37372  65.1948  79.4483 0008997 246.3793 296.0390  2.13102898 39723
GPS BIIF-2              
1 37753U 11036A   16097.38051553  .00000063  00000-0  00000+0 0  9997
2 37753  55.2390 118.2075 0051527  23.4465 288.0520  2.00566318 34585
LUCH 5A                 
1 37951U 11074B   16097.23604133 -.00000065  00000-0  00000+0 0  9994
2 37951   1.8086 218.4004 0003514 178.6649  49.8336  1.00272622 15846
MSG-3                   
1 38552U 12035B   16096.46138703 -.00000024  00000-0  00000-0 0  9995
2 38552   0.6449  86.7449 0001647 190.4499  82.7844  1.00268405 13542
SARSAT 13 (METOP-B)     
1 38771U 12049A   16097.86203630  .00000032  00000-0  34799-4 0  9994
2 38771  98.6968 157.9380 0001877  70.7819  41.7739 14.21488414184283
GPS BIIF-3              
1 38833U 12053A   16096.93718780 -.00000007  00000-0  00000+0 0  9998
2 38833  54.4362 296.5791 0043052  20.3899 339.8050  2.00568883 25651
GSAT0103 (GALILEO-FM3)  
1 38857U 12055A   16096.66465567 -.00000012  00000-0  00000+0 0  9994
2 38857  54.9428 204.1604 0003644 217.6333 142.3306  1.70473549 21679
GSAT0104 (GALILEO-FM4)  
1 38858U 12055B   16091.90646961  .00000001  00000-0  00000+0 0  9993
2 38858  54.9445 204.2901 0002319 201.5512 158.4279  1.70473725 21548
GPS BIIF-4              
1 39166U 13023A   16097.29525347 -.00000028  00000-0  00000+0 0  9994
2 39166  55.6261  57.6085 0034406   9.4020 350.6396  2.00567898 21173
INSAT-3D                
1 39216U 13038B   16095.23599849 -.00000173  00000-0  00000+0 0  9997
2 39216   0.0517 111.5228 0000907 252.2124 356.2629  1.00273132  9944
GPS BIIF-5              
1 39533U 14008A   16097.29362733 -.00000013  00000-0  00000+0 0  9998
2 39533  54.5902 301.7876 0018535 177.3872 182.6515  2.00569780 15550
LUCH 5V                 
1 39727U 14023A   16096.23765731 -.00000291  00000-0  00000+0 0  9996
2 39727   3.5386 300.0823 0002790  72.8602   1.1967  1.00268485525172
GPS BIIF-6              
1 39741U 14026A   16097.07205966  .00000065  00000-0  00000+0 0  9995
2 39741  55.2296 117.7361 0006545 268.5749  91.4163  2.00564193 13820
GPS BIIF-7              
1 40105U 14045A   16097.16522500 -.00000014  00000-0  00000+0 0  9993
2 40105  54.7400 237.4595 0004539 132.0964 227.8985  2.00571099 12279
GSAT0201                
1 40128U 14050A   16097.46304726 -.00000032  00000-0  00000+0 0  9995
2 40128  50.0388  62.7349 1586550  47.9656 324.4452  1.85519163 11172
GSAT0202                
1 40129U 14050B   16096.65416358 -.00000027  00000-0  00000-0 0  9996
2 40129  50.0950  61.7479 1586730  49.0621 323.5888  1.85519741 11384
GPS BIIF-8              
1 40294U 14068A   16097.03686374  .00000021  00000-0  00000+0 0  9990
2 40294  54.9619 177.8821 0004113 240.8195 119.1927  2.00556555 10494
GLONASS-K 2             
1 40315U 14075A   16097.40569388  .00000001  00000-0  00000+0 0  9996
2 40315  64.6530 320.6076 0015794 237.2646 234.3821  2.13101624 10508
GPS BIIF-9              
1 40534U 15013A   16096.67770506 -.00000064  00000-0  00000+0 0  9996
2 40534  55.0396 357.4901 0010016 350.8518   9.1650  2.00556414  7558
GSAT0203                
1 40544U 15017A   16095.23162659  .00000033  00000-0  00000-0 0  9992
2 40544  55.2903  84.3858 0004314 257.0516 102.9127  1.70475454  5685
GSAT0204                
1 40545U 15017B   16095.60170449  .00000032  00000-0  00000-0 0  9999
2 40545  55.2974  84.3841 0002040 247.0037 112.9854  1.70475540  6356
GPS BIIF-10             
1 40730U 15033A   16097.33285541 -.00000029  00000-0  00000+0 0  9991
2 40730  55.1627  57.4757 0020415 287.9743  71.7818  2.00563759  5328
GSAT 0205               
1 40889U 15045A   16093.49045799 -.00000027  00000-0  00000-0 0  9990
2 40889  57.2980 324.1005 0004570   7.8784 352.1827  1.70474450  3471
GSAT 0206               
1 40890U 15045B   16097.22998490 -.00000030  00000-0  00000+0 0  9995
2 40890  57.3010 323.9905 0003141 358.4953   1.5572  1.70474497  3552
GPS BIIF-11             
1 41019U 15062A   16096.88806184  .00000020  00000-0  00000+0 0  9995
2 41019  54.9772 177.6544 0014059 208.6694 151.3063  2.00562149  3134
GSAT 0209               
1 41174U 15079A   16096.38084271 -.00000012  00000-0  00000+0 0  9997
2 41174  54.9482 203.8545 0003719 278.6482 173.2005  1.70474117  1860
GSAT 0208               
1 41175U 15079B   16092.35516917 -.00000000  00000-0  00000+0 0  9995
2 41175  54.9524 203.9660 0002486 272.7890  93.4496  1.70474144  1794
GPS BIIF-12             
1 41328U 16007A   16096.48106182 -.00000012  00000-0  00000+0 0  9997
2 41328  55.0035 237.5510 0002734 265.7383  94.1883  2.00574250  1190
